{"fetched_at":"2026-07-15T06:36:13.915Z","source":"https://celestrak.org/NORAD/elements/gp.php?NAME=LEGION&FORMAT=JSON","constellation":"maxar-legion","records":[{"OBJECT_NAME":"LEGION 1","OBJECT_ID":"2024-081A","EPOCH":"2026-07-14T22:26:42.327168","CLASSIFICATION_TYPE":"U","MEAN_MOTION":15.16842607,"ECCENTRICITY":0.00077018,"INCLINATION":97.5012,"RA_OF_ASC_NODE":273.4979,"ARG_OF_PERICENTER":270.8634,"MEAN_ANOMALY":89.1717,"EPHEMERIS_TYPE":0,"NORAD_CAT_ID":59625,"ELEMENT_SET_NO":999,"REV_AT_EPOCH":12174,"BSTAR":0.00010148812,"MEAN_MOTION_DOT":0.0000193,"MEAN_MOTION_DDOT":0},{"OBJECT_NAME":"LEGION 2","OBJECT_ID":"2024-081B","EPOCH":"2026-07-14T21:35:27.641472","CLASSIFICATION_TYPE":"U","MEAN_MOTION":15.16821712,"ECCENTRICITY":0.00101866,"INCLINATION":97.5014,"RA_OF_ASC_NODE":273.5595,"ARG_OF_PERICENTER":234.4417,"MEAN_ANOMALY":125.5867,"EPHEMERIS_TYPE":0,"NORAD_CAT_ID":59626,"ELEMENT_SET_NO":999,"REV_AT_EPOCH":12174,"BSTAR":0.00011095921,"MEAN_MOTION_DOT":0.00002116,"MEAN_MOTION_DDOT":0},{"OBJECT_NAME":"LEGION 3","OBJECT_ID":"2024-146A","EPOCH":"2026-07-14T14:40:37.185600","CLASSIFICATION_TYPE":"U","MEAN_MOTION":15.1565348,"ECCENTRICITY":0.00082703,"INCLINATION":45.0019,"RA_OF_ASC_NODE":243.5171,"ARG_OF_PERICENTER":330.995,"MEAN_ANOMALY":29.0469,"EPHEMERIS_TYPE":0,"NORAD_CAT_ID":60452,"ELEMENT_SET_NO":999,"REV_AT_EPOCH":10618,"BSTAR":0.000097435323,"MEAN_MOTION_DOT":0.00001621,"MEAN_MOTION_DDOT":0},{"OBJECT_NAME":"LEGION 4","OBJECT_ID":"2024-146B","EPOCH":"2026-07-14T19:24:59.673600","CLASSIFICATION_TYPE":"U","MEAN_MOTION":15.15679876,"ECCENTRICITY":0.00089457,"INCLINATION":45.003,"RA_OF_ASC_NODE":334.3256,"ARG_OF_PERICENTER":111.3803,"MEAN_ANOMALY":248.8031,"EPHEMERIS_TYPE":0,"NORAD_CAT_ID":60453,"ELEMENT_SET_NO":999,"REV_AT_EPOCH":10506,"BSTAR":0.00011348257,"MEAN_MOTION_DOT":0.00001933,"MEAN_MOTION_DDOT":0},{"OBJECT_NAME":"LEGION 5","OBJECT_ID":"2025-025A","EPOCH":"2026-07-14T06:45:58.167936","CLASSIFICATION_TYPE":"U","MEAN_MOTION":15.16070913,"ECCENTRICITY":0.00083317,"INCLINATION":45,"RA_OF_ASC_NODE":156.1117,"ARG_OF_PERICENTER":298.1691,"MEAN_ANOMALY":61.8346,"EPHEMERIS_TYPE":0,"NORAD_CAT_ID":62900,"ELEMENT_SET_NO":999,"REV_AT_EPOCH":7860,"BSTAR":0.00011994316,"MEAN_MOTION_DOT":0.00002084,"MEAN_MOTION_DDOT":0},{"OBJECT_NAME":"LEGION 6","OBJECT_ID":"2025-025B","EPOCH":"2026-07-14T08:19:27.569568","CLASSIFICATION_TYPE":"U","MEAN_MOTION":15.15684469,"ECCENTRICITY":0.00108304,"INCLINATION":45.0016,"RA_OF_ASC_NODE":64.9097,"ARG_OF_PERICENTER":272.2859,"MEAN_ANOMALY":87.678,"EPHEMERIS_TYPE":0,"NORAD_CAT_ID":62901,"ELEMENT_SET_NO":999,"REV_AT_EPOCH":7975,"BSTAR":0.00008933686,"MEAN_MOTION_DOT":0.00001466,"MEAN_MOTION_DDOT":0}]}
